satname,norad_id,inclination_deg,eccentricity,mean_motion_rev_per_day,perigee_km,apogee_km,l1,l2
STARLINK-1274,45387,53.0342,0.0005257,15.33137294,462.860640128657,470.05704819921084,1 45387U 20019AD  25338.85955035  .00064282  00000+0  19738-2 0  9991,2 45387  53.0342 191.5559 0005257  91.0610 269.0993 15.33137294316003
STARLINK-1280,45388,53.0515,0.0010588,15.45830441,421.7317459110418,436.1464102139471,1 45388U 20019AE  25339.23427691  .00060974  00000+0  12338-2 0  9990,2 45388  53.0515 219.1583 0010588 117.6727 242.5355 15.45830441315641
STARLINK-1283,45389,53.0512,0.000954,15.35098314,454.1043083965151,467.15267295272133,1 45389U 20019AF  25338.83033081  .00116301  00000+0  33214-2 0  9994,2 45389  53.0512 202.5720 0009540 114.6686 245.5309 15.35098314315854
STARLINK-1284,45390,53.0533,0.0001497,15.06400339,546.1737944287097,548.2472434758838,1 45390U 20019AG  25338.94314037  .00001519  00000+0  12085-3 0  9999,2 45390  53.0533 211.9529 0001497  73.5559 286.5595 15.06400339315725
STARLINK-1297,45395,53.0531,0.0001514,15.06411974,546.1263673803951,548.2233518114808,1 45395U 20019AM  25338.84730375  .00005641  00000+0  39713-3 0  9997,2 45395  53.0531 212.3828 0001514  91.3190 268.7972 15.06411974314899
STARLINK-1307,45397,53.0533,0.0001351,15.06407468,546.2530581904484,548.1242811863995,1 45397U 20019AP  25338.97263595  .00010541  00000+0  72534-3 0  9991,2 45397  53.0533 211.8194 0001351 101.0706 259.0435 15.06407468315558
STARLINK-1255,45399,53.045,0.0008333,15.35056936,455.0525386523923,466.4502300337381,1 45399U 20019AR  25339.29453285  .00056450  00000+0  16332-2 0  9998,2 45399  53.0450 191.4656 0008333 124.3937 235.7853 15.35056936315855
STARLINK-1260,45404,53.0529,0.0001338,15.06401387,546.2806959180289,548.1339180545783,1 45404U 20019AW  25338.84085038  .00002093  00000+0  15937-3 0  9997,2 45404  53.0529 202.4084 0001338  84.9827 275.1315 15.06401387315565
STARLINK-1263,45405,53.0515,0.0001486,15.06434639,546.0763054063773,548.1344874465949,1 45405U 20019AX  25338.82610329  .00048584  00000+0  32551-2 0  9998,2 45405  53.0515 202.4813 0001486  89.0077 271.1082 15.06434639315561
STARLINK-1265,45406,53.0532,0.0001453,15.06403512,546.1945426035154,548.2070457665059,1 45406U 20019AY  25338.83348206  .00002601  00000+0  19340-3 0  9994,2 45406  53.0532 202.4455 0001453 100.2704 259.8449 15.06403512315566
STARLINK-1278,45408,53.0506,0.000956,15.38229881,444.8146680481959,457.87263505396095,1 45408U 20019BA  25338.97811595  .00094929  00000+0  24597-2 0  9990,2 45408  53.0506 222.5050 0009560 105.2660 254.9400 15.38229881315301
STARLINK-1296,45412,53.0534,0.0001448,15.06396127,546.2206359608999,548.2262203408909,1 45412U 20019BE  25338.83716727  .00001904  00000+0  14669-3 0  9992,2 45412  53.0534 202.4268 0001448  92.0554 268.0601 15.06396127315567
STARLINK-1298,45413,53.0443,0.0008143,15.59023602,384.969990874074,395.99336325153945,1 45413U 20019BF  25339.00003471  .00021393  00000+0  27508-3 0  9998,2 45413  53.0443 165.7527 0008143  82.7347 214.7950 15.59023602  5947
STARLINK-1309,45414,53.0534,0.0001616,15.06398124,546.09817035794,548.3364448701614,1 45414U 20019BG  25338.85191345  .00002669  00000+0  19803-3 0  9993,2 45414  53.0534 202.3627 0001616  93.7293 266.3881 15.06398124315551
STARLINK-1316,45415,53.055,0.0001436,15.06395108,546.2320690483148,548.221033460235,1 45415U 20019BH  25338.94406029  .00000701  00000+0  65939-4 0  9999,2 45415  53.0550 201.9479 0001436  84.9587 275.1566 15.06395108315601
STARLINK-1318,45416,53.0467,0.0003972,15.65639555,368.71911863532114,374.08095085572404,1 45416U 20019BJ  25338.71134589  .00159988  00000+0  15335-2 0  9999,2 45416  53.0467 156.9010 0003972 150.1547 209.9695 15.65639555316205
STARLINK-1286,45417,53.0523,0.0005887,15.39788731,442.7157229968743,450.7513255521553,1 45417U 20019BK  25338.97061047  .00058220  00000+0  14456-2 0  9996,2 45417  53.0523 222.5706 0005887 113.1865 246.9759 15.39788731315573
STARLINK-1308,45419,53.0528,0.0001443,15.06395922,546.2247268486881,548.2233860495799,1 45419U 20019BM  25338.97815847  .00001703  00000+0  13318-3 0  9994,2 45419  53.0528 231.7908 0001443 101.2844 258.8307 15.06395922315194
STARLINK-1329,45531,53.054,0.0001459,15.08984907,538.2912475496114,540.309755812601,1 45531U 20025A   25339.33336806  .01105031  00000+0  63740-1 0  9992,2 45531  53.0540 170.1897 0001459  87.1735 216.3841 15.08984907  5630
STARLINK-1338,45532,53.0525,0.0001309,15.06405515,546.2881293954697,548.1011812228307,1 45532U 20025B   25338.82518308  .00003707  00000+0  26757-3 0  9990,2 45532  53.0525 172.4805 0001309  87.8282 272.2856 15.06405515310790
STARLINK-1350,45535,53.0738,0.0001838,15.33373025,464.49942203808314,467.0152375937241,1 45535U 20025E   25338.71586043  .00024191  00000+0  74857-3 0  9996,2 45535  53.0738 118.2610 0001838  99.5820 260.5389 15.33373025311574
STARLINK-1362,45538,53.0526,0.0001336,15.06402559,546.2784894634224,548.1289405024663,1 45538U 20025H   25339.25546039 -.00000060  00000+0  14881-4 0  9992,2 45538  53.0526 170.2681 0001336  86.2738 273.8403 15.06402559310862
STARLINK-1368,45540,53.0537,0.0001593,15.06399035,546.1113070294487,548.317724022294,1 45540U 20025K   25339.26012417  .00000061  00000+0  22982-4 0  9995,2 45540  53.0537 170.5293 0001593  83.9616 276.1555 15.06399035310850
STARLINK-1371,45542,53.0538,0.0001479,15.06396065,546.1993573373584,548.2478790082132,1 45542U 20025M   25339.23062989 -.00000585  00000+0 -20399-4 0  9996,2 45542  53.0538 170.6579 0001479  87.1601 272.9557 15.06396065310850
STARLINK-1372,45543,53.0544,0.0001308,15.0640118,546.3021062922535,548.1137765289268,1 45543U 20025N   25338.86941476  .00001746  00000+0  13609-3 0  9995,2 45543  53.0544 172.2829 0001308  90.1569 269.9570 15.06401180309890
STARLINK-1373,45544,53.0527,0.0001434,15.06407208,546.1963747292057,548.1825583598102,1 45544U 20025P   25338.82149769  .00002085  00000+0  15878-3 0  9994,2 45544  53.0527 172.4980 0001434  85.2992 274.8161 15.06407208310796
STARLINK-1294,45551,53.0451,0.0002788,15.66446439,367.2008986628325,370.9631479902391,1 45551U 20025W   25339.33336806  .00046385  00000+0  44028-3 0  9999,2 45551  53.0451  89.2677 0002788 157.9651 137.5890 15.66446439  5958
STARLINK-1325,45554,53.0515,0.0007372,15.75364468,338.63898506461646,348.5495056127438,1 45554U 20025Z   25339.33336806  .00189795  00000+0  12064-2 0  9999,2 45554  53.0515  80.9707 0007372 347.4991  27.7653 15.75364468  6017
STARLINK-1327,45555,53.0543,0.0001436,15.06399319,546.2191647533446,548.2081254586192,1 45555U 20025AA  25338.79384844  .00000525  00000+0  54135-4 0  9994,2 45555  53.0543 152.6230 0001436  91.1154 269.0000 15.06399319311064
STARLINK-1356,45564,53.0543,0.0001332,15.06400085,546.2888410323139,548.133753818749,1 45564U 20025AK  25338.79753713  .00001050  00000+0  89399-4 0  9993,2 45564  53.0543 152.6044 0001332  91.9792 268.1350 15.06400085311069
STARLINK-1357,45565,53.0591,0.0007313,15.37982249,447.0817774208581,457.07164799706607,1 45565U 20025AL  25339.33336806  .00096302  00000+0  25164-2 0  9997,2 45565  53.0591 128.2184 0007313 136.3563 118.4881 15.37982249  5878
STARLINK-1361,45567,53.055,0.0001538,15.06388804,546.1807483925304,548.3109961640439,1 45567U 20025AN  25338.68328197  .00001178  00000+0  98020-4 0  9990,2 45567  53.0550 153.1157 0001538  92.9440 267.1725 15.06388804311058
STARLINK-1363,45568,53.0508,0.0006599,15.47828164,418.5926042052779,427.56885136240817,1 45568U 20025AP  25339.33336806  .00143512  00000+0  26744-2 0  9991,2 45568  53.0508 138.4652 0006599 195.1704   8.1387 15.47828164  5903
STARLINK-1366,45569,53.051,0.0005572,15.44923111,427.8096169334449,435.3983923089954,1 45569U 20025AQ  25338.72021246  .00139753  00000+0  28801-2 0  9991,2 45569  53.0510 141.3272 0005572 203.7283 156.3467 15.44923111311210
STARLINK-1376,45570,53.0545,0.0001274,15.06398874,546.3327191223107,548.0972988141966,1 45570U 20025AR  25338.81227997  .00001201  00000+0  99491-4 0  9995,2 45570  53.0545 152.5409 0001274  89.8356 270.2779 15.06398874311060
STARLINK-1320,45572,53.0555,0.000593,15.47725798,419.34731118347736,427.41391107027357,1 45572U 20025AT  25339.32722355  .00053251  00000+0  10128-2 0  9992,2 45572  53.0555  84.0875 0005930 110.8615 249.3028 15.47725798312097
STARLINK-1321,45573,53.0543,0.00013,15.06397173,546.3199258607674,548.120518738564,1 45573U 20025AU  25338.66576237  .00001549  00000+0  12287-3 0  9997,2 45573  53.0543 143.1984 0001300  89.9423 270.1715 15.06397173310880
STARLINK-1328,45576,53.0446,0.0004973,15.83220742,318.0077361773465,324.6710353906474,1 45576U 20025AX  25339.33336806  .00249044  00000+0  11014-2 0  9991,2 45576  53.0446  99.3630 0004973 170.8183  62.2019 15.83220742  5988
STARLINK-1331,45578,53.0531,0.000116,15.06409534,546.379000712358,547.9856747987169,1 45578U 20025AZ  25338.77634323  .00006652  00000+0  46492-3 0  9990,2 45578  53.0531 142.7006 0001160  86.6991 273.4130 15.06409534311210
STARLINK-1333,45580,53.0527,0.0001261,15.06404264,546.325204618015,548.0717742284478,1 45580U 20025BB  25338.78278715  .00001469  00000+0  11749-3 0  9991,2 45580  53.0527 152.6689 0001261  91.8790 268.2344 15.06404264311069
STARLINK-1335,45581,53.0548,0.0001322,15.0640304,546.286710944154,548.1177706394183,1 45581U 20025BC  25338.72105434  .00002151  00000+0  16325-3 0  9997,2 45581  53.0548 142.9508 0001322  90.9242 269.1899 15.06403040311195
STARLINK-1337,45582,53.0538,0.0001368,15.06397521,546.2717670045522,548.1665444487589,1 45582U 20025BD  25338.67682269  .00000674  00000+0  64147-4 0  9992,2 45582  53.0538 143.1495 0001368  92.0164 268.0982 15.06397521311185
STARLINK-1347,45586,53.0512,0.0006677,15.36808736,450.99046677441675,460.11617683015174,1 45586U 20025BH  25339.00003471  .00032405  00000+0  89407-3 0  9998,2 45586  53.0512 120.4649 0006677 134.7956 334.6812 15.36808736  5822
